*******************************************************************************
Ephemeris / WWW_USER Mon Mar 24 07:31:55 2025 Pasadena, USA      / Horizons    
*******************************************************************************
Target body name: (2018 RC)                       {source: JPL#21}
Center body name: Earth (399)                     {source: DE441}
Center-site name: Mauna Kea
*******************************************************************************
Start time      : A.D. 2018-Oct-27 04:00:00.0000 UT      
Stop  time      : A.D. 2018-Oct-27 16:11:00.0000 UT      
Step-size       : 1 minutes
*******************************************************************************
Target pole/equ : undefined
Target radii    : undefined                                                    
Center geodetic : 204.5278, 19.8260847, 4.21024   {E-lon(deg),Lat(deg),Alt(km)}
Center cylindric: 204.5278, 6006.35451, 2151.0229 {E-lon(deg),Dxy(km),Dz(km)}
Center pole/equ : ITRF93                          {East-longitude positive}
Center radii    : 6378.137, 6378.137, 6356.752 km {Equator_a, b, pole_c}       
Target primary  : Sun
Vis. interferer : MOON (R_eq= 1737.400) km        {source: DE441}
Rel. light bend : Sun                             {source: DE441}
Rel. lght bnd GM: 1.3271E+11 km^3/s^2                                          
Small-body perts: Yes                             {source: SB441-N16}
Atmos refraction: NO (AIRLESS)
RA format       : HMS
Time format     : CAL 
Calendar mode   : Mixed Julian/Gregorian
RTS-only print  : NO       
EOP file        : eop.250321.p250617                                           
EOP coverage    : DATA-BASED 1962-JAN-20 TO 2025-MAR-21. PREDICTS-> 2025-JUN-16
Units conversion: 1 au= 149597870.700 km, c= 299792.458 km/s, 1 day= 86400.0 s 
Table cut-offs 1: Elevation (-90.0deg=NO ),Airmass (>38.000=NO), Daylight (YES)
Table cut-offs 2: Solar elongation (  0.0,180.0=NO ),Local Hour Angle( 0.0=NO )
Table cut-offs 3: RA/DEC angular rate (     0.0=NO )                           
*******************************************************************************
Initial IAU76/J2000 heliocentric ecliptic osculating elements (au, days, deg.):
  EPOCH=  2458369.5 ! 2018-Sep-08.00 (TDB)         Residual RMS= .84866        
   EC= .2426621660028976   QR= .647471518312811    TP= 2458473.8617576878      
   OM= 346.8893436915528   W=  145.8737085184167   IN= 1.612045057594462       
  Equivalent ICRF heliocentric cartesian coordinates (au, au/d):
   X= 9.781363708094483E-01  Y=-2.377942828764822E-01  Z=-1.040448782093900E-01
  VX= 1.501011538102481E-03 VY= 1.393070215815854E-02 VZ= 6.509326736836346E-03
Asteroid physical parameters (km, seconds, rotational period in hours):        
   GM= n.a.                RAD= n.a.               ROTPER= .16548              
   H= 24.93                G= .150                 B-V= n.a.                   
                           ALBEDO= n.a.            STYP= n.a.                  
*******************************************************************************
 Date__(UT)__HR:MN     R.A._________(ICRF)_________DEC
******************************************************
$$SOE
 2018-Oct-27 06:03  m  13 07 10.014679 -00 05 26.10772
 2018-Oct-27 06:04  m  13 07 10.033873 -00 05 26.46082
 2018-Oct-27 06:05  m  13 07 10.053112 -00 05 26.81393
 2018-Oct-27 06:06  m  13 07 10.072396 -00 05 27.16705
 2018-Oct-27 06:07  m  13 07 10.091726 -00 05 27.52019
 2018-Oct-27 06:08  m  13 07 10.111101 -00 05 27.87335
 2018-Oct-27 06:09  m  13 07 10.130521 -00 05 28.22651
 2018-Oct-27 06:10  m  13 07 10.149985 -00 05 28.57969
 2018-Oct-27 06:11  m  13 07 10.169494 -00 05 28.93288
 2018-Oct-27 06:12  m  13 07 10.189047 -00 05 29.28609
 2018-Oct-27 06:13  m  13 07 10.208644 -00 05 29.63931
 2018-Oct-27 06:14  m  13 07 10.228285 -00 05 29.99255
 2018-Oct-27 06:15  m  13 07 10.247970 -00 05 30.34579
 2018-Oct-27 06:16  m  13 07 10.267698 -00 05 30.69906
 2018-Oct-27 06:17  m  13 07 10.287470 -00 05 31.05233
 2018-Oct-27 06:18  m  13 07 10.307284 -00 05 31.40562
 2018-Oct-27 06:19  m  13 07 10.327142 -00 05 31.75892
 2018-Oct-27 06:20  m  13 07 10.347042 -00 05 32.11224
 2018-Oct-27 06:21  m  13 07 10.366984 -00 05 32.46557
 2018-Oct-27 06:22  m  13 07 10.386969 -00 05 32.81892
 2018-Oct-27 06:23  m  13 07 10.406996 -00 05 33.17227
 2018-Oct-27 06:24  m  13 07 10.427064 -00 05 33.52565
 2018-Oct-27 06:25  m  13 07 10.447175 -00 05 33.87903
 2018-Oct-27 06:26  m  13 07 10.467326 -00 05 34.23243
 2018-Oct-27 06:27  m  13 07 10.487519 -00 05 34.58584
 2018-Oct-27 06:28  m  13 07 10.507753 -00 05 34.93927
 2018-Oct-27 06:29  m  13 07 10.528028 -00 05 35.29271
 2018-Oct-27 06:30  m  13 07 10.548344 -00 05 35.64617
 2018-Oct-27 06:31  m  13 07 10.568699 -00 05 35.99963
 2018-Oct-27 06:32  m  13 07 10.589095 -00 05 36.35312
 2018-Oct-27 06:33  m  13 07 10.609531 -00 05 36.70661
 2018-Oct-27 06:34  m  13 07 10.630007 -00 05 37.06012
 2018-Oct-27 06:35  m  13 07 10.650522 -00 05 37.41365
 2018-Oct-27 06:36  m  13 07 10.671077 -00 05 37.76718
 2018-Oct-27 06:37  m  13 07 10.691670 -00 05 38.12074
 2018-Oct-27 06:38  m  13 07 10.712303 -00 05 38.47430
 2018-Oct-27 06:39  m  13 07 10.732974 -00 05 38.82788
 2018-Oct-27 06:40  m  13 07 10.753684 -00 05 39.18148
 2018-Oct-27 06:41  m  13 07 10.774432 -00 05 39.53508
 2018-Oct-27 06:42  m  13 07 10.795218 -00 05 39.88870
 2018-Oct-27 06:43  m  13 07 10.816041 -00 05 40.24234
 2018-Oct-27 06:44  m  13 07 10.836903 -00 05 40.59599
 2018-Oct-27 06:45  m  13 07 10.857801 -00 05 40.94965
 2018-Oct-27 06:46  m  13 07 10.878737 -00 05 41.30333
 2018-Oct-27 06:47  m  13 07 10.899710 -00 05 41.65702
 2018-Oct-27 06:48  m  13 07 10.920719 -00 05 42.01073
 2018-Oct-27 06:49  m  13 07 10.941765 -00 05 42.36445
 2018-Oct-27 06:50  m  13 07 10.962847 -00 05 42.71818
 2018-Oct-27 06:51  m  13 07 10.983966 -00 05 43.07193
 2018-Oct-27 06:52  m  13 07 11.005120 -00 05 43.42569
 2018-Oct-27 06:53  m  13 07 11.026309 -00 05 43.77947
 2018-Oct-27 06:54  m  13 07 11.047534 -00 05 44.13326
 2018-Oct-27 06:55  m  13 07 11.068794 -00 05 44.48706
 2018-Oct-27 06:56  m  13 07 11.090089 -00 05 44.84088
 2018-Oct-27 06:57  m  13 07 11.111418 -00 05 45.19471
 2018-Oct-27 06:58  m  13 07 11.132782 -00 05 45.54856
 2018-Oct-27 06:59  m  13 07 11.154180 -00 05 45.90242
 2018-Oct-27 07:00  m  13 07 11.175613 -00 05 46.25629
 2018-Oct-27 07:01  m  13 07 11.197078 -00 05 46.61018
 2018-Oct-27 07:02  m  13 07 11.218578 -00 05 46.96408
 2018-Oct-27 07:03  m  13 07 11.240110 -00 05 47.31800
 2018-Oct-27 07:04  m  13 07 11.261676 -00 05 47.67193
 2018-Oct-27 07:05  m  13 07 11.283275 -00 05 48.02588
 2018-Oct-27 07:06  m  13 07 11.304906 -00 05 48.37984
 2018-Oct-27 07:07  m  13 07 11.326569 -00 05 48.73381
 2018-Oct-27 07:08  m  13 07 11.348265 -00 05 49.08780
 2018-Oct-27 07:09  m  13 07 11.369992 -00 05 49.44180
 2018-Oct-27 07:10  m  13 07 11.391751 -00 05 49.79582
 2018-Oct-27 07:11  m  13 07 11.413542 -00 05 50.14985
 2018-Oct-27 07:12  m  13 07 11.435363 -00 05 50.50389
 2018-Oct-27 07:13  m  13 07 11.457216 -00 05 50.85795
 2018-Oct-27 07:14  m  13 07 11.479099 -00 05 51.21203
 2018-Oct-27 07:15  m  13 07 11.501012 -00 05 51.56611
 2018-Oct-27 07:16  m  13 07 11.522956 -00 05 51.92022
 2018-Oct-27 07:17  m  13 07 11.544930 -00 05 52.27433
 2018-Oct-27 07:18  m  13 07 11.566934 -00 05 52.62846
 2018-Oct-27 07:19  m  13 07 11.588967 -00 05 52.98261
 2018-Oct-27 07:20  m  13 07 11.611029 -00 05 53.33677
 2018-Oct-27 07:21  m  13 07 11.633120 -00 05 53.69094
 2018-Oct-27 07:22  m  13 07 11.655240 -00 05 54.04513
 2018-Oct-27 07:23  m  13 07 11.677389 -00 05 54.39933
 2018-Oct-27 07:24  m  13 07 11.699565 -00 05 54.75355
 2018-Oct-27 07:25  m  13 07 11.721770 -00 05 55.10778
 2018-Oct-27 07:26  m  13 07 11.744003 -00 05 55.46202
 2018-Oct-27 07:27  m  13 07 11.766263 -00 05 55.81628
 2018-Oct-27 07:28  m  13 07 11.788550 -00 05 56.17056
 2018-Oct-27 07:29  m  13 07 11.810865 -00 05 56.52484
 2018-Oct-27 07:30  m  13 07 11.833206 -00 05 56.87915
 2018-Oct-27 07:31  m  13 07 11.855574 -00 05 57.23346
 2018-Oct-27 07:32  m  13 07 11.877968 -00 05 57.58780
 2018-Oct-27 07:33  m  13 07 11.900388 -00 05 57.94214
 2018-Oct-27 07:34  m  13 07 11.922834 -00 05 58.29650
 2018-Oct-27 07:35  m  13 07 11.945306 -00 05 58.65088
 2018-Oct-27 07:36  m  13 07 11.967802 -00 05 59.00527
 2018-Oct-27 07:37  m  13 07 11.990324 -00 05 59.35967
 2018-Oct-27 07:38  m  13 07 12.012871 -00 05 59.71409
 2018-Oct-27 07:39  m  13 07 12.035442 -00 06 00.06852
 2018-Oct-27 07:40  m  13 07 12.058038 -00 06 00.42297
 2018-Oct-27 07:41  m  13 07 12.080657 -00 06 00.77743
 2018-Oct-27 07:42  m  13 07 12.103301 -00 06 01.13191
 2018-Oct-27 07:43  m  13 07 12.125968 -00 06 01.48640
 2018-Oct-27 07:44  m  13 07 12.148658 -00 06 01.84090
 2018-Oct-27 07:45  m  13 07 12.171371 -00 06 02.19542
 2018-Oct-27 07:46  m  13 07 12.194107 -00 06 02.54996
 2018-Oct-27 07:47  m  13 07 12.216866 -00 06 02.90451
 2018-Oct-27 07:48  m  13 07 12.239647 -00 06 03.25907
 2018-Oct-27 07:49  m  13 07 12.262450 -00 06 03.61365
 2018-Oct-27 07:50  m  13 07 12.285274 -00 06 03.96824
 2018-Oct-27 07:51  m  13 07 12.308121 -00 06 04.32285
 2018-Oct-27 07:52  m  13 07 12.330988 -00 06 04.67747
 2018-Oct-27 07:53  m  13 07 12.353877 -00 06 05.03210
 2018-Oct-27 07:54  m  13 07 12.376786 -00 06 05.38675
 2018-Oct-27 07:55  m  13 07 12.399715 -00 06 05.74142
 2018-Oct-27 07:56  m  13 07 12.422665 -00 06 06.09610
 2018-Oct-27 07:57  m  13 07 12.445635 -00 06 06.45079
 2018-Oct-27 07:58  m  13 07 12.468625 -00 06 06.80550
 2018-Oct-27 07:59  m  13 07 12.491634 -00 06 07.16023
 2018-Oct-27 08:00  m  13 07 12.514662 -00 06 07.51496
 2018-Oct-27 08:01  m  13 07 12.537710 -00 06 07.86972
 2018-Oct-27 08:02  m  13 07 12.560775 -00 06 08.22448
 2018-Oct-27 08:03  m  13 07 12.583860 -00 06 08.57927
 2018-Oct-27 08:04  m  13 07 12.606962 -00 06 08.93406
 2018-Oct-27 08:05  m  13 07 12.630083 -00 06 09.28887
